{
  "type": "FeatureCollection",
  "features": [
    {
      "type": "Feature",
      "properties": {
        "norad_id": 32376,
        "name": "COSMO-SKYMED 2",
        "group": "resource",
        "lat": -3.455033074579013,
        "lon": -20.13741616047101,
        "alt_km": 626.1210126644837,
        "timestamp": "2025-12-04T21:36:15.530910+00:00",
        "meta_object_name": "COSMO-SKYMED 2",
        "meta_object_id": "2007-059A",
        "meta_epoch": "2025-12-04T15:55:08.298336",
        "meta_mean_motion": 14.8215119,
        "meta_eccentricity": 0.00015615,
        "meta_inclination": 97.8806,
        "meta_ra_of_asc_node": 160.1085,
        "meta_arg_of_pericenter": 88.0122,
        "meta_mean_anomaly": 272.127,
        "meta_ephemeris_type": 0,
        "meta_classification_type": "U",
        "meta_norad_cat_id": 32376,
        "meta_element_set_no": 999,
        "meta_rev_at_epoch": 97318,
        "meta_bstar": 0.0001708664,
        "meta_mean_motion_dot": 1.308e-05,
        "meta_mean_motion_ddot": 0,
        "tle_line1": "1 32376U 07059A   25338.66329049  .00001308  00000+0  17087-3 0  9999",
        "tle_line2": "2 32376  97.8806 160.1085 0001561  88.0122 272.1270 14.82151190973187"
      },
      "geometry": {
        "type": "Point",
        "coordinates": [
          -20.13741616047101,
          -3.455033074579013
        ]
      }
    },
    {
      "type": "Feature",
      "properties": {
        "norad_id": 32382,
        "name": "RADARSAT-2",
        "group": "resource",
        "lat": 17.41896007859832,
        "lon": 166.31921975464624,
        "alt_km": 791.972815952392,
        "timestamp": "2025-12-04T21:36:15.530921+00:00",
        "meta_object_name": "RADARSAT-2",
        "meta_object_id": "2007-061A",
        "meta_epoch": "2025-12-04T14:07:51.053376",
        "meta_mean_motion": 14.29984204,
        "meta_eccentricity": 0.00010775,
        "meta_inclination": 98.5799,
        "meta_ra_of_asc_node": 343.2974,
        "meta_arg_of_pericenter": 90.3761,
        "meta_mean_anomaly": 269.7545,
        "meta_ephemeris_type": 0,
        "meta_classification_type": "U",
        "meta_norad_cat_id": 32382,
        "meta_element_set_no": 999,
        "meta_rev_at_epoch": 93814,
        "meta_bstar": 7.9378276e-05,
        "meta_mean_motion_dot": 1.61e-06,
        "meta_mean_motion_ddot": 0,
        "tle_line1": "1 32382U 07061A   25338.58878534  .00000161  00000+0  79378-4 0  9996",
        "tle_line2": "2 32382  98.5799 343.2974 0001077  90.3761 269.7545 14.29984204938146"
      },
      "geometry": {
        "type": "Point",
        "coordinates": [
          166.31921975464624,
          17.41896007859832
        ]
      }
    },
    {
      "type": "Feature",
      "properties": {
        "norad_id": 32783,
        "name": "CARTOSAT-2A",
        "group": "resource",
        "lat": 53.45864924267155,
        "lon": 18.317111591585107,
        "alt_km": 619.8549840255564,
        "timestamp": "2025-12-04T21:36:15.530931+00:00",
        "meta_object_name": "CARTOSAT-2A",
        "meta_object_id": "2008-021A",
        "meta_epoch": "2025-12-04T14:51:55.931904",
        "meta_mean_motion": 14.78913956,
        "meta_eccentricity": 0.00124091,
        "meta_inclination": 97.7943,
        "meta_ra_of_asc_node": 28.6963,
        "meta_arg_of_pericenter": 30.1052,
        "meta_mean_anomaly": 330.087,
        "meta_ephemeris_type": 0,
        "meta_classification_type": "U",
        "meta_norad_cat_id": 32783,
        "meta_element_set_no": 999,
        "meta_rev_at_epoch": 95004,
        "meta_bstar": 0.00024487739,
        "meta_mean_motion_dot": 1.757e-05,
        "meta_mean_motion_ddot": 0,
        "tle_line1": "1 32783U 08021A   25338.61939736  .00001757  00000+0  24488-3 0  9997",
        "tle_line2": "2 32783  97.7943  28.6963 0012409  30.1052 330.0870 14.78913956950047"
      },
      "geometry": {
        "type": "Point",
        "coordinates": [
          18.317111591585107,
          53.45864924267155
        ]
      }
    },
    {
      "type": "Feature",
      "properties": {
        "norad_id": 33320,
        "name": "HUANJING 1A (HJ-1A)",
        "group": "resource",
        "lat": 25.147892593948985,
        "lon": 151.14562020357167,
        "alt_km": 619.4379609698071,
        "timestamp": "2025-12-04T21:36:15.530942+00:00",
        "meta_object_name": "HUANJING 1A (HJ-1A)",
        "meta_object_id": "2008-041A",
        "meta_epoch": "2025-12-04T16:03:18.589824",
        "meta_mean_motion": 14.83354487,
        "meta_eccentricity": 0.00206076,
        "meta_inclination": 97.653,
        "meta_ra_of_asc_node": 327.305,
        "meta_arg_of_pericenter": 59.5737,
        "meta_mean_anomaly": 300.7511,
        "meta_ephemeris_type": 0,
        "meta_classification_type": "U",
        "meta_norad_cat_id": 33320,
        "meta_element_set_no": 999,
        "meta_rev_at_epoch": 92956,
        "meta_bstar": 0.00042204392,
        "meta_mean_motion_dot": 3.421e-05,
        "meta_mean_motion_ddot": 0,
        "tle_line1": "1 33320U 08041A   25338.66896516  .00003421  00000+0  42204-3 0  9996",
        "tle_line2": "2 33320  97.6530 327.3050 0020607  59.5737 300.7511 14.83354487929569"
      },
      "geometry": {
        "type": "Point",
        "coordinates": [
          151.14562020357167,
          25.147892593948985
        ]
      }
    },
    {
      "type": "Feature",
      "properties": {
        "norad_id": 33321,
        "name": "HUANJING 1B (HJ-1B)",
        "group": "resource",
        "lat": 30.62916145488527,
        "lon": -33.31381279163048,
        "alt_km": 609.491646014927,
        "timestamp": "2025-12-04T21:36:15.530952+00:00",
        "meta_object_name": "HUANJING 1B (HJ-1B)",
        "meta_object_id": "2008-041B",
        "meta_epoch": "2025-12-04T14:59:13.465824",
        "meta_mean_motion": 14.82788477,
        "meta_eccentricity": 0.0038226,
        "meta_inclination": 97.6391,
        "meta_ra_of_asc_node": 330.9806,
        "meta_arg_of_pericenter": 101.4694,
        "meta_mean_anomaly": 259.0817,
        "meta_ephemeris_type": 0,
        "meta_classification_type": "U",
        "meta_norad_cat_id": 33321,
        "meta_element_set_no": 999,
        "meta_rev_at_epoch": 92957,
        "meta_bstar": 0.0003179133,
        "meta_mean_motion_dot": 2.552e-05,
        "meta_mean_motion_ddot": 0,
        "tle_line1": "1 33321U 08041B   25338.62446141  .00002552  00000+0  31791-3 0  9991",
        "tle_line2": "2 33321  97.6391 330.9806 0038226 101.4694 259.0817 14.82788477929574"
      },
      "geometry": {
        "type": "Point",
        "coordinates": [
          -33.31381279163048,
          30.62916145488527
        ]
      }
    },
    {
      "type": "Feature",
      "properties": {
        "norad_id": 33331,
        "name": "GEOEYE 1",
        "group": "resource",
        "lat": 15.108262466631404,
        "lon": -127.5107171868083,
        "alt_km": 680.2936363718218,
        "timestamp": "2025-12-04T21:36:15.530963+00:00",
        "meta_object_name": "GEOEYE 1",
        "meta_object_id": "2008-042A",
        "meta_epoch": "2025-12-04T14:17:50.106048",
        "meta_mean_motion": 14.64795523,
        "meta_eccentricity": 0.00029334,
        "meta_inclination": 98.1262,
        "meta_ra_of_asc_node": 49.9779,
        "meta_arg_of_pericenter": 312.3778,
        "meta_mean_anomaly": 47.7176,
        "meta_ephemeris_type": 0,
        "meta_classification_type": "U",
        "meta_norad_cat_id": 33331,
        "meta_element_set_no": 999,
        "meta_rev_at_epoch": 92166,
        "meta_bstar": 0.00024100454,
        "meta_mean_motion_dot": 1.238e-05,
        "meta_mean_motion_ddot": 0,
        "tle_line1": "1 33331U 08042A   25338.59571882  .00001238  00000+0  24100-3 0  9996",
        "tle_line2": "2 33331  98.1262  49.9779 0002933 312.3778  47.7176 14.64795523921668"
      },
      "geometry": {
        "type": "Point",
        "coordinates": [
          -127.5107171868083,
          15.108262466631404
        ]
      }
    },
    {
      "type": "Feature",
      "properties": {
        "norad_id": 33396,
        "name": "THEOS",
        "group": "resource",
        "lat": -21.085381766241742,
        "lon": -146.11961646069278,
        "alt_km": 830.4107542369911,
        "timestamp": "2025-12-04T21:36:15.530975+00:00",
        "meta_object_name": "THEOS",
        "meta_object_id": "2008-049A",
        "meta_epoch": "2025-12-04T15:35:12.650208",
        "meta_mean_motion": 14.20093826,
        "meta_eccentricity": 0.00011005,
        "meta_inclination": 98.588,
        "meta_ra_of_asc_node": 36.9774,
        "meta_arg_of_pericenter": 100.278,
        "meta_mean_anomaly": 259.8521,
        "meta_ephemeris_type": 0,
        "meta_classification_type": "U",
        "meta_norad_cat_id": 33396,
        "meta_element_set_no": 999,
        "meta_rev_at_epoch": 89035,
        "meta_bstar": 9.5724823e-05,
        "meta_mean_motion_dot": 1.61e-06,
        "meta_mean_motion_ddot": 0,
        "tle_line1": "1 33396U 08049A   25338.64945197  .00000161  00000+0  95725-4 0  9990",
        "tle_line2": "2 33396  98.5880  36.9774 0001100 100.2780 259.8521 14.20093826890352"
      },
      "geometry": {
        "type": "Point",
        "coordinates": [
          -146.11961646069278,
          -21.085381766241742
        ]
      }
    }
  ]
}